[{"OBJECT_NAME":"COSMOS 2517 (GEO-IK 2)","OBJECT_ID":"2016-034A","EPOCH":"2026-03-09T22:46:47.568288","MEAN_MOTION":13.85906021,"ECCENTRICITY":9.478e-5,"INCLINATION":99.193,"RA_OF_ASC_NODE":79.5998,"ARG_OF_PERICENTER":99.0909,"MEAN_ANOMALY":261.0354,"EPHEMERIS_TYPE":0,"CLASSIFICATION_TYPE":"U","NORAD_CAT_ID":41579,"ELEMENT_SET_NO":999,"REV_AT_EPOCH":49388,"BSTAR":5.6006133e-5,"MEAN_MOTION_DOT":2.1e-7,"MEAN_MOTION_DDOT":0},{"OBJECT_NAME":"SL-8 R\/B","OBJECT_ID":"1993-070B","EPOCH":"2026-03-09T15:04:02.097984","MEAN_MOTION":13.78275072,"ECCENTRICITY":0.0048308,"INCLINATION":82.9422,"RA_OF_ASC_NODE":105.6264,"ARG_OF_PERICENTER":293.265,"MEAN_ANOMALY":66.3426,"EPHEMERIS_TYPE":0,"CLASSIFICATION_TYPE":"U","NORAD_CAT_ID":22889,"ELEMENT_SET_NO":999,"REV_AT_EPOCH":62636,"BSTAR":3.8614e-5,"MEAN_MOTION_DOT":5.4e-7,"MEAN_MOTION_DDOT":0}]
